Country,Name,Artist,Listeners,Longitude,Latitude,longitude_offset,latitude_offset
Russian Federation,Smells Like Teen Spirit,Nirvana,3206072,61.524,105.3188,61.58911250892494,106.60848655563278
Russian Federation,Seven Nation Army,The White Stripes,2343189,61.524,105.3188,62.17344754804528,104.3522345069951
Russian Federation,Numb,Linkin Park,2126574,61.524,105.3188,61.08327963964057,106.89029900645039
Russian Federation,Intro,The xx,1432916,61.524,105.3188,60.87418520750655,105.68298421248674
Russian Federation,Feel Good Inc.,Gorillaz,2661048,61.524,105.3188,60.109697659404176,106.06113287888478
Russian Federation,In the End,Linkin Park,2311704,61.524,105.3188,60.97679350176492,105.97686954295139
Russian Federation,Californication,Red Hot Chili Peppers,2364578,61.524,105.3188,62.97632817174534,104.27413514550385
Russian Federation,Creep,Radiohead,2870305,61.524,105.3188,61.86321820812456,106.2267973169225
Russian Federation,Take on Me,a-ha,2148860,61.524,105.3188,62.86343914285797,103.41394645154672
Russian Federation,Zombie,The Cranberries,2012693,61.524,105.3188,63.49204566482123,104.57992982574117
Germany,Smells Like Teen Spirit,Nirvana,3206072,51.1657,10.4515,49.21968340190231,10.168041500309776
Germany,Africa,Toto,1647599,51.1657,10.4515,49.18993304554296,9.649765514248212
Germany,Mr. Brightside,The Killers,3072882,51.1657,10.4515,51.698582355266055,10.99760033535764
Germany,Come as You Are,Nirvana,2829904,51.1657,10.4515,50.75777288075363,11.318123076139978
Germany,In the End,Linkin Park,2311704,51.1657,10.4515,49.45473659247644,9.715038975314013
Germany,Don't Stop Believin',Journey,1655330,51.1657,10.4515,49.99876807349824,10.360517728763455
Germany,Seven Nation Army,The White Stripes,2343189,51.1657,10.4515,50.043658206645375,12.267358644836635
Germany,Chop Suey!,System of a Down,2359479,51.1657,10.4515,49.6097530118257,9.959776345946144
Germany,Californication,Red Hot Chili Peppers,2364578,51.1657,10.4515,52.74916522869011,9.03907801308599
Germany,All I Want for Christmas Is You,Mariah Carey,1669836,51.1657,10.4515,50.33309272180991,10.091298250330725
United Kingdom,Mr. Brightside,The Killers,3072882,55.3781,-3.436,55.35299058286307,-5.258595212651053
United Kingdom,All I Want for Christmas Is You,Mariah Carey,1669836,55.3781,-3.436,54.13259379707942,-4.561662328343332
United Kingdom,Africa,Toto,1647599,55.3781,-3.436,53.41634080172441,-4.556863095683985
United Kingdom,Smells Like Teen Spirit,Nirvana,3206072,55.3781,-3.436,55.734292342454765,-4.547727734848426
United Kingdom,Last Christmas,Wham!,1448945,55.3781,-3.436,56.20077534837988,-3.7049318363716415
United Kingdom,Seven Nation Army,The White Stripes,2343189,55.3781,-3.436,55.30733338703396,-4.950271135856456
United Kingdom,Take on Me,a-ha,2148860,55.3781,-3.436,55.10337794102975,-1.8310948900086288
United Kingdom,Take Me Out,Franz Ferdinand,2363976,55.3781,-3.436,55.69256457574438,-4.69343352219904
United Kingdom,Everybody Wants to Rule the World,Tears for Fears,1938938,55.3781,-3.436,55.91278648349758,-4.993680136389624
United Kingdom,Come as You Are,Nirvana,2829904,55.3781,-3.436,54.62187405890754,-5.398404656363545
France,Smells Like Teen Spirit,Nirvana,3206072,46.6034,1.8883,47.54375492730183,0.7015755101111427
France,Creep,Radiohead,2870305,46.6034,1.8883,46.13198479052814,0.890382976592087
France,Seven Nation Army,The White Stripes,2343189,46.6034,1.8883,44.97155026069613,1.1613921305965325
France,Teardrop,Massive Attack,1600282,46.6034,1.8883,46.09940110994469,3.2782868821754554
France,Karma Police,Radiohead,2466252,46.6034,1.8883,47.81958124253057,1.4484940757617166
France,Come as You Are,Nirvana,2829904,46.6034,1.8883,45.93359121540937,3.7415517035973016
France,No Surprises,Radiohead,2364438,46.6034,1.8883,46.866082518545866,3.190963345773941
France,Wonderwall,Oasis,2260888,46.6034,1.8883,48.40762329672209,3.5991046346251596
France,Glory Box,Portishead,1264113,46.6034,1.8883,46.53075637896234,3.39006805514944
France,Walk on the Wild Side,Lou Reed,1040518,46.6034,1.8883,47.99256276225542,3.109305589261147
Italy,Creep,Radiohead,2870305,41.8719,12.5674,42.290744418527076,10.975430077726806
Italy,Smells Like Teen Spirit,Nirvana,3206072,41.8719,12.5674,39.95339975023277,13.576599220879489
Italy,Karma Police,Radiohead,2466252,41.8719,12.5674,40.6416022812865,12.849023078481082
Italy,Come as You Are,Nirvana,2829904,41.8719,12.5674,42.15952043412583,13.881911293503594
Italy,Losing My Religion,R.E.M.,1842134,41.8719,12.5674,43.512978367785365,13.712972487844885
Italy,Teardrop,Massive Attack,1600282,41.8719,12.5674,40.01015243540372,14.056560492176445
Italy,Sultans of Swing,Dire Straits,1522259,41.8719,12.5674,41.19391649247654,13.657290708563686
Italy,Boys Don't Cry,The Cure,1717511,41.8719,12.5674,42.010794364933076,10.914432927757034
Italy,Seven Nation Army,The White Stripes,2343189,41.8719,12.5674,41.561658784944655,11.569878497311699
Italy,No Surprises,Radiohead,2364438,41.8719,12.5674,41.244511390040486,13.304503291837962
Spain,Creep,Radiohead,2870305,40.4637,-3.7492,42.132178151809995,-4.432619681523407
Spain,Take Me Out,Franz Ferdinand,2363976,40.4637,-3.7492,41.22196266609614,-4.366127332821514
Spain,Seven Nation Army,The White Stripes,2343189,40.4637,-3.7492,39.43956466671363,-5.405070321980455
Spain,The Less I Know the Better,Tame Impala,1820269,40.4637,-3.7492,38.69419800103896,-2.581670882615442
Spain,Smells Like Teen Spirit,Nirvana,3206072,40.4637,-3.7492,41.687619525031,-4.202239748240471
Spain,Losing My Religion,R.E.M.,1842134,40.4637,-3.7492,41.72907995579318,-1.8144752256623002
Spain,Last Nite,The Strokes,1656955,40.4637,-3.7492,40.13460713034815,-3.189659484786835
Spain,Lonely Boy,The Black Keys,1215485,40.4637,-3.7492,41.52117043174412,-4.714282989055107
Spain,Do I Wanna Know?,Arctic Monkeys,2128754,40.4637,-3.7492,39.56138798805798,-4.841100779403127
Spain,Karma Police,Radiohead,2466252,40.4637,-3.7492,41.506811643770426,-2.3149164259724033
Ukraine,Smells Like Teen Spirit,Nirvana,3206072,48.3794,31.1656,48.12649115754111,31.08772190550989
Ukraine,Seven Nation Army,The White Stripes,2343189,48.3794,31.1656,49.7537663133282,32.390290691092744
Ukraine,Creep,Radiohead,2870305,48.3794,31.1656,48.572493221702814,29.80996715663863
Ukraine,Chop Suey!,System of a Down,2359479,48.3794,31.1656,49.93473346467398,32.124155903802865
Ukraine,In the End,Linkin Park,2311704,48.3794,31.1656,47.78930867886773,29.22533346450889
Ukraine,Do I Wanna Know?,Arctic Monkeys,2128754,48.3794,31.1656,46.48498774970953,31.669586276041176
Ukraine,Numb,Linkin Park,2126574,48.3794,31.1656,49.95479991818493,30.53539583183741
Ukraine,Californication,Red Hot Chili Peppers,2364578,48.3794,31.1656,46.748290239963524,32.129899670343285
Ukraine,Toxicity,System of a Down,1807843,48.3794,31.1656,47.83184603755559,29.278523449657794
Ukraine,Come as You Are,Nirvana,2829904,48.3794,31.1656,48.99738615698078,30.332506871982975
Poland,Do I Wanna Know?,Arctic Monkeys,2128754,51.9194,19.1451,50.11099710173547,19.54529274784727
Poland,Seven Nation Army,The White Stripes,2343189,51.9194,19.1451,53.09687196873256,17.23917152649578
Poland,Smells Like Teen Spirit,Nirvana,3206072,51.9194,19.1451,53.74728698804597,19.692905214218584
Poland,Chop Suey!,System of a Down,2359479,51.9194,19.1451,53.81116521176407,19.738490347267273
Poland,Under the Bridge,Red Hot Chili Peppers,2211851,51.9194,19.1451,51.315095382380235,19.06217885116692
Poland,Africa,Toto,1647599,51.9194,19.1451,49.96485767408505,20.9446974467307
Poland,Sex on Fire,Kings of Leon,2169667,51.9194,19.1451,51.71043633852737,18.26450057707106
Poland,Californication,Red Hot Chili Peppers,2364578,51.9194,19.1451,52.73109434541028,20.705884880278088
Poland,Come as You Are,Nirvana,2829904,51.9194,19.1451,53.091113897283016,20.680203904023433
Poland,Take on Me,a-ha,2148860,51.9194,19.1451,52.37724947219348,17.339360728062687
Netherlands,Africa,Toto,1647599,52.1326,5.2913,50.64589520197567,3.7451007752183334
Netherlands,Sultans of Swing,Dire Straits,1522259,52.1326,5.2913,53.66234855769604,4.7892598111491465
Netherlands,Smells Like Teen Spirit,Nirvana,3206072,52.1326,5.2913,53.10095252863467,6.378761707312661
Netherlands,Take on Me,a-ha,2148860,52.1326,5.2913,51.18140672943499,3.309218282669365
Netherlands,Seven Nation Army,The White Stripes,2343189,52.1326,5.2913,51.11053942834168,6.743755476697229
Netherlands,Under the Bridge,Red Hot Chili Peppers,2211851,52.1326,5.2913,53.417634939150545,5.0687939923434815
Netherlands,All I Want for Christmas Is You,Mariah Carey,1669836,52.1326,5.2913,53.67998205920099,6.443592960373726
Netherlands,The Less I Know the Better,Tame Impala,1820269,52.1326,5.2913,51.76734659339268,5.676482324293836
Netherlands,Mr. Brightside,The Killers,3072882,52.1326,5.2913,53.09420996920652,6.021909366117205
Netherlands,Creep,Radiohead,2870305,52.1326,5.2913,54.013351927990634,6.472230098850847
Belgium,The Less I Know the Better,Tame Impala,1820269,50.5039,4.4699,48.7643425374817,5.854967064608613
Belgium,Smells Like Teen Spirit,Nirvana,3206072,50.5039,4.4699,52.27788216960714,4.424564698477486
Belgium,Sultans of Swing,Dire Straits,1522259,50.5039,4.4699,52.2881999391938,4.382888840463201
Belgium,Africa,Toto,1647599,50.5039,4.4699,51.82282371663626,6.360594437180281
Belgium,Creep,Radiohead,2870305,50.5039,4.4699,52.416833738950345,5.541270750186179
Belgium,Come as You Are,Nirvana,2829904,50.5039,4.4699,50.43823056087885,5.843871427953859
Belgium,Teardrop,Massive Attack,1600282,50.5039,4.4699,49.94739315000562,4.648028379827283
Belgium,Karma Police,Radiohead,2466252,50.5039,4.4699,50.8667704618689,4.736413229834108
Belgium,Under the Bridge,Red Hot Chili Peppers,2211851,50.5039,4.4699,51.58366740024235,5.588739826060954
Belgium,Take on Me,a-ha,2148860,50.5039,4.4699,52.0581943369816,5.9848302546129855
China,Hello,Adele,820388,35.8617,104.1954,36.952912015600866,103.35295466887341
China,Yellow,Coldplay,2642867,35.8617,104.1954,37.430811821933894,102.6878395014727
China,Viva la Vida,Coldplay,2598238,35.8617,104.1954,36.48028653679591,105.65014677153933
China,Someone Like You,Adele,1689461,35.8617,104.1954,35.73443205370934,105.78995245229277
China,Shape of You,Ed Sheeran,951830,35.8617,104.1954,37.63680191477178,105.51356127887973
China,Rolling in the Deep,Adele,2083061,35.8617,104.1954,34.08804113324823,105.3894518794771
China,Blank Space,Taylor Swift,1365712,35.8617,104.1954,36.27543926053083,103.89970585722388
China,Can't Feel My Face,The Weeknd,1322599,35.8617,104.1954,37.535404994356654,104.89065919411892
China,When We Were Young,Adele,744590,35.8617,104.1954,35.947966766011064,105.13764482890352
China,Send My Love (To Your New Lover),Adele,684622,35.8617,104.1954,34.80752995040616,103.8476582970905
India,Yellow,Coldplay,2642867,20.5937,78.9629,21.034031706581537,80.64579435291579
India,The Scientist,Coldplay,2306951,20.5937,78.9629,20.63753440104257,78.69432345947322
India,Wish You Were Here,Pink Floyd,1638667,20.5937,78.9629,20.736554860449985,79.61255486804204
India,In the End,Linkin Park,2311704,20.5937,78.9629,20.682583734431393,79.05848909899348
India,Comfortably Numb,Pink Floyd,1269582,20.5937,78.9629,20.27908156960579,80.64926253504743
India,Smells Like Teen Spirit,Nirvana,3206072,20.5937,78.9629,22.20999944572175,79.49052137937747
India,Sweet Child o' Mine,Guns N' Roses,2065128,20.5937,78.9629,21.14523809106251,80.31614478265804
India,Shape of You,Ed Sheeran,951830,20.5937,78.9629,19.29985605375058,78.1144557487313
India,Numb,Linkin Park,2126574,20.5937,78.9629,21.577620913627328,79.23228491921654
India,Fix You,Coldplay,2063808,20.5937,78.9629,19.68330858597033,80.48136463611547
Japan,ロビンソン,スピッツ,25556,36.2048,138.2529,37.286486491884894,139.0920351183218
Japan,新宝島,サカナクション,16911,36.2048,138.2529,37.38310681612676,136.7600773770905
Japan,STAY TUNE,Suchmos,35943,36.2048,138.2529,36.513099801960756,137.30829427139562
Japan,リライト,ASIAN KUNG-FU GENERATION,88062,36.2048,138.2529,36.44764481122571,136.9648292640695
Japan,花束を君に,宇多田ヒカル,14481,36.2048,138.2529,34.61949984835333,138.06467739226727
Japan,チェリー,スピッツ,23393,36.2048,138.2529,37.38417708634868,138.3554606558858
Japan,道,宇多田ヒカル,13576,36.2048,138.2529,37.688167239229145,138.26448952794013
Japan,Smells Like Teen Spirit,Nirvana,3206072,36.2048,138.2529,35.40204594794332,137.96190036140453
Japan,First Love,宇多田ヒカル,80330,36.2048,138.2529,36.42295147355607,136.4171018538879
Japan,Bohemian Rhapsody,Queen,1839221,36.2048,138.2529,37.10097716224514,138.6975840518849
Indonesia,Yellow,Coldplay,2642867,-0.7893,113.9213,-0.8134844915373735,113.51604772903198
Indonesia,The Scientist,Coldplay,2306951,-0.7893,113.9213,0.2761167322453829,113.57220501796044
Indonesia,Somewhere Only We Know,Keane,1818045,-0.7893,113.9213,-1.9590014111898801,115.84489242926716
Indonesia,Fix You,Coldplay,2063808,-0.7893,113.9213,0.6348726325459845,113.18476176913836
Indonesia,Creep,Radiohead,2870305,-0.7893,113.9213,0.12836080922513504,114.74384467150301
Indonesia,Mr. Brightside,The Killers,3072882,-0.7893,113.9213,-1.3590886544720773,115.42956993949899
Indonesia,Untitled,MALIQ & D'Essentials,20776,-0.7893,113.9213,-1.1581347288436419,112.88807199094597
Indonesia,Photograph,Ed Sheeran,896998,-0.7893,113.9213,-1.5704270790511576,113.6522805116085
Indonesia,Kiss Me,Sixpence None the Richer,1334431,-0.7893,113.9213,-0.8453954849603719,113.87031512715208
Indonesia,Dan...,Sheila On 7,23037,-0.7893,113.9213,-1.1442834835768827,114.84084777841356
Saudi Arabia,Hello,Adele,820388,23.8859,45.0792,24.294205437806358,43.23576122780473
Saudi Arabia,Can't Feel My Face,The Weeknd,1322599,23.8859,45.0792,25.003947382375625,46.19279257471672
Saudi Arabia,Cheap Thrills,Sia,735624,23.8859,45.0792,24.390808720151902,43.77186110982266
Saudi Arabia,The Scientist,Coldplay,2306951,23.8859,45.0792,25.593191040497288,44.40926179529822
Saudi Arabia,Chandelier,Sia,1111682,23.8859,45.0792,25.205307162877418,46.52769469664785
Saudi Arabia,Shape of You,Ed Sheeran,951830,23.8859,45.0792,25.439920018871952,43.297870666455665
Saudi Arabia,Viva la Vida,Coldplay,2598238,23.8859,45.0792,24.540357788698884,44.028698729186786
Saudi Arabia,Fix You,Coldplay,2063808,23.8859,45.0792,25.150797991537996,44.90968218587964
Saudi Arabia,Mr. Brightside,The Killers,3072882,23.8859,45.0792,23.942431197168652,43.69344697517416
Saudi Arabia,Yellow,Coldplay,2642867,23.8859,45.0792,25.58673363512635,43.781552037902244
Turkey,Do I Wanna Know?,Arctic Monkeys,2128754,38.9637,35.2433,40.223190762259534,33.99672056896265
Turkey,Bir Derdim Var,Mor ve Ötesi,72143,38.9637,35.2433,38.74340087578485,36.52105125796092
Turkey,Creep,Radiohead,2870305,38.9637,35.2433,40.7145765743552,33.66075767360648
Turkey,Karma Police,Radiohead,2466252,38.9637,35.2433,37.14256865319517,33.59619749841473
Turkey,Teardrop,Massive Attack,1600282,38.9637,35.2433,37.122101589133436,34.81764785336634
Turkey,The Less I Know the Better,Tame Impala,1820269,38.9637,35.2433,38.78011551232682,35.49471960891387
Turkey,Cambaz,Mor ve Ötesi,56551,38.9637,35.2433,39.65642768861825,36.226220331376574
Turkey,Roads,Portishead,1045349,38.9637,35.2433,39.08867574934013,35.78672985595073
Turkey,Seven Nation Army,The White Stripes,2343189,38.9637,35.2433,40.14118721108499,34.23403522442906
Turkey,Take Me to Church,Hozier,1635024,38.9637,35.2433,37.65978386903239,36.29049798073102
Thailand,Yellow,Coldplay,2642867,15.87,100.9925,14.86934579442589,100.39831991106215
Thailand,Shape of You,Ed Sheeran,951830,15.87,100.9925,16.42075301834185,99.57342584079633
Thailand,The Scientist,Coldplay,2306951,15.87,100.9925,17.152836772197354,100.60266295862047
Thailand,Thinking Out Loud,Ed Sheeran,952337,15.87,100.9925,17.032138958187076,102.02922318667714
Thailand,Photograph,Ed Sheeran,896998,15.87,100.9925,15.170419233474215,102.26246154115755
Thailand,Creep,Radiohead,2870305,15.87,100.9925,15.846382886237922,102.80997433770698
Thailand,Hello,Adele,820388,15.87,100.9925,16.80328659135453,99.63918595677146
Thailand,Mr. Brightside,The Killers,3072882,15.87,100.9925,14.979953082802906,100.41333623893094
Thailand,Smells Like Teen Spirit,Nirvana,3206072,15.87,100.9925,15.065429051629517,101.86020010470979
Thailand,Somewhere Only We Know,Keane,1818045,15.87,100.9925,15.070720220626844,100.71762075399484
Malaysia,Yellow,Coldplay,2642867,4.2105,101.9758,2.925336635122476,100.0552636716115
Malaysia,The Scientist,Coldplay,2306951,4.2105,101.9758,6.076214875813344,100.04074656842539
Malaysia,Photograph,Ed Sheeran,896998,4.2105,101.9758,4.153532371617415,100.13498820549411
Malaysia,Mr. Brightside,The Killers,3072882,4.2105,101.9758,2.7835092318844885,101.0701028146739
Malaysia,In the End,Linkin Park,2311704,4.2105,101.9758,3.107508556417977,103.48277290574286
Malaysia,Somewhere Only We Know,Keane,1818045,4.2105,101.9758,2.278230362662398,101.47845752341543
Malaysia,Fix You,Coldplay,2063808,4.2105,101.9758,4.657647889557874,103.79645867534921
Malaysia,Viva la Vida,Coldplay,2598238,4.2105,101.9758,2.7635568760219558,102.73083179526671
Malaysia,Hello,Adele,820388,4.2105,101.9758,4.103232809104271,100.44661282763687
Malaysia,Creep,Radiohead,2870305,4.2105,101.9758,5.892393256805157,102.80937434040567
United States,Mr. Brightside,The Killers,3072882,37.0902,-95.7129,36.2262751278555,-97.24396321024277
United States,Float On,Modest Mouse,1511068,37.0902,-95.7129,38.74524598197183,-96.85492230497829
United States,The Less I Know the Better,Tame Impala,1820269,37.0902,-95.7129,38.159466038205466,-94.11408612304616
United States,Smells Like Teen Spirit,Nirvana,3206072,37.0902,-95.7129,36.0526566121234,-97.07133640446641
United States,Everybody Wants to Rule the World,Tears for Fears,1938938,37.0902,-95.7129,38.62295664435644,-97.18845595256754
United States,Can't Feel My Face,The Weeknd,1322599,37.0902,-95.7129,36.7496943476833,-97.47559104036439
United States,Everlong,Foo Fighters,2339983,37.0902,-95.7129,36.2074662855722,-96.14805459690568
United States,Seven Nation Army,The White Stripes,2343189,37.0902,-95.7129,37.090025787361334,-96.70495685220592
United States,The Middle,Jimmy Eat World,1581066,37.0902,-95.7129,36.2925134537369,-95.97768612746519
United States,Electric Feel,MGMT,2142858,37.0902,-95.7129,36.46274155191735,-96.05470451707532
Canada,Mr. Brightside,The Killers,3072882,56.1304,-106.3468,57.106671304927865,-106.80170008038884
Canada,Smells Like Teen Spirit,Nirvana,3206072,56.1304,-106.3468,54.926245758451806,-108.27367892538
Canada,Seven Nation Army,The White Stripes,2343189,56.1304,-106.3468,55.99566035452794,-107.6637476116497
Canada,The Less I Know the Better,Tame Impala,1820269,56.1304,-106.3468,58.03977187345674,-106.19645431209423
Canada,Karma Police,Radiohead,2466252,56.1304,-106.3468,54.73815846479574,-104.87627843808212
Canada,Creep,Radiohead,2870305,56.1304,-106.3468,55.011001068133446,-108.07246510548184
Canada,Can't Feel My Face,The Weeknd,1322599,56.1304,-106.3468,56.64476751687408,-104.51750455485733
Canada,Come as You Are,Nirvana,2829904,56.1304,-106.3468,56.41745656378352,-107.4576499782761
Canada,Feel Good Inc.,Gorillaz,2661048,56.1304,-106.3468,56.957315798809844,-106.28226734007485
Canada,Take on Me,a-ha,2148860,56.1304,-106.3468,56.68501588603451,-104.81217199619618
Mexico,Creep,Radiohead,2870305,23.6345,-102.5528,22.864073874688472,-101.47415124537508
Mexico,Seven Nation Army,The White Stripes,2343189,23.6345,-102.5528,21.979547493678265,-104.32347724208637
Mexico,Take Me Out,Franz Ferdinand,2363976,23.6345,-102.5528,25.579126647916965,-103.81332303820639
Mexico,Mr. Brightside,The Killers,3072882,23.6345,-102.5528,22.65757168754226,-104.2489600516634
Mexico,The Less I Know the Better,Tame Impala,1820269,23.6345,-102.5528,25.412511466757316,-101.44523785324013
Mexico,Reptilia,The Strokes,1919555,23.6345,-102.5528,23.071153237634626,-104.42100904134416
Mexico,Feel Good Inc.,Gorillaz,2661048,23.6345,-102.5528,22.832323290991166,-101.80336797493125
Mexico,Do I Wanna Know?,Arctic Monkeys,2128754,23.6345,-102.5528,24.09777701761036,-104.30951729874785
Mexico,Last Nite,The Strokes,1656955,23.6345,-102.5528,25.11648574614107,-102.87238614801072
Mexico,Take on Me,a-ha,2148860,23.6345,-102.5528,21.855312166265264,-104.33106505591287
Guatemala,Creep,Radiohead,2870305,15.7835,-90.2308,15.147586332761826,-89.517621919621
Guatemala,Losing My Religion,R.E.M.,1842134,15.7835,-90.2308,14.17132419575556,-90.49620477231245
Guatemala,Smells Like Teen Spirit,Nirvana,3206072,15.7835,-90.2308,13.998353118868208,-91.89162311507583
Guatemala,In the End,Linkin Park,2311704,15.7835,-90.2308,17.170780806372274,-92.22909844591176
Guatemala,Take on Me,a-ha,2148860,15.7835,-90.2308,15.291408453291245,-89.8510358865102
Guatemala,Seven Nation Army,The White Stripes,2343189,15.7835,-90.2308,14.78843190906345,-90.09700510670885
Guatemala,Yellow,Coldplay,2642867,15.7835,-90.2308,17.51065802183867,-92.17417784640246
Guatemala,Come as You Are,Nirvana,2829904,15.7835,-90.2308,14.326938826136901,-88.44286247911234
Guatemala,Chop Suey!,System of a Down,2359479,15.7835,-90.2308,15.645329498745431,-91.39259193873072
Guatemala,Mr. Brightside,The Killers,3072882,15.7835,-90.2308,17.104220212330294,-88.60965785486663
Honduras,Yellow,Coldplay,2642867,15.2,-86.2419,16.379448507645613,-87.1998250701054
Honduras,Creep,Radiohead,2870305,15.2,-86.2419,16.35442022452697,-85.34759481384712
Honduras,Pumped Up Kicks,Foster the People,2194143,15.2,-86.2419,13.336934859359769,-86.31214887607712
Honduras,Can't Feel My Face,The Weeknd,1322599,15.2,-86.2419,14.488424812560517,-85.91464529690118
Honduras,Feel Good Inc.,Gorillaz,2661048,15.2,-86.2419,15.391449731824906,-87.18061518310856
Honduras,Seven Nation Army,The White Stripes,2343189,15.2,-86.2419,14.599154872674399,-86.39240711743619
Honduras,Do I Wanna Know?,Arctic Monkeys,2128754,15.2,-86.2419,15.547846487368737,-86.83840059097636
Honduras,In the End,Linkin Park,2311704,15.2,-86.2419,17.11203194867387,-86.57318547158489
Honduras,The Scientist,Coldplay,2306951,15.2,-86.2419,15.146731361585996,-86.68340230362443
Honduras,One More Time,Daft Punk,1754637,15.2,-86.2419,14.636464343149946,-86.52537376696192
Nicaragua,Take on Me,a-ha,2148860,12.8654,-85.2072,11.270050678748364,-85.62263632676549
Nicaragua,The Scientist,Coldplay,2306951,12.8654,-85.2072,12.769116896635605,-86.53314996678176
Nicaragua,Pumped Up Kicks,Foster the People,2194143,12.8654,-85.2072,12.395484637361935,-84.47896367092274
Nicaragua,Take Me Out,Franz Ferdinand,2363976,12.8654,-85.2072,13.232564816762011,-86.198588304565
Nicaragua,The Less I Know the Better,Tame Impala,1820269,12.8654,-85.2072,11.93285897787909,-85.57098062991899
Nicaragua,Sex on Fire,Kings of Leon,2169667,12.8654,-85.2072,13.13664876859202,-87.04286450732957
Nicaragua,Everybody Wants to Rule the World,Tears for Fears,1938938,12.8654,-85.2072,14.431052302915155,-85.99797982975844
Nicaragua,Seven Nation Army,The White Stripes,2343189,12.8654,-85.2072,11.224619753491204,-85.15210108690393
Nicaragua,Every Breath You Take,The Police,1795526,12.8654,-85.2072,14.714709987565483,-85.30979395043721
Nicaragua,Hello,Adele,820388,12.8654,-85.2072,14.451638428928092,-83.38668301789518
Costa Rica,Creep,Radiohead,2870305,9.7489,-83.7534,9.288291127202914,-84.44914978858998
Costa Rica,Losing My Religion,R.E.M.,1842134,9.7489,-83.7534,9.064037013364002,-83.93124479130515
Costa Rica,Karma Police,Radiohead,2466252,9.7489,-83.7534,10.920715945002769,-81.93678894105729
Costa Rica,Chop Suey!,System of a Down,2359479,9.7489,-83.7534,10.882316643006916,-85.59918069355409
Costa Rica,Mr. Brightside,The Killers,3072882,9.7489,-83.7534,8.801197672463207,-82.3021434220262
Costa Rica,Feel Good Inc.,Gorillaz,2661048,9.7489,-83.7534,9.065001317262228,-83.22154127373445
Costa Rica,Take on Me,a-ha,2148860,9.7489,-83.7534,9.66540218490649,-82.81694048871329
Costa Rica,Under the Bridge,Red Hot Chili Peppers,2211851,9.7489,-83.7534,8.49516269373213,-85.26713934598523
Costa Rica,Everlong,Foo Fighters,2339983,9.7489,-83.7534,11.257092346419968,-83.736436235309
Costa Rica,Smells Like Teen Spirit,Nirvana,3206072,9.7489,-83.7534,11.49215878180732,-82.89894332053203
Panama,In the End,Linkin Park,2311704,8.538,-80.7821,8.503003791724211,-80.1958412162806
Panama,Smells Like Teen Spirit,Nirvana,3206072,8.538,-80.7821,7.7802943743534545,-81.07291538710454
Panama,Take on Me,a-ha,2148860,8.538,-80.7821,10.457144211399722,-81.18207230365412
Panama,Chop Suey!,System of a Down,2359479,8.538,-80.7821,9.61269473383794,-81.45549553488772
Panama,Creep,Radiohead,2870305,8.538,-80.7821,7.487366097472693,-80.52779409636256
Panama,Mr. Brightside,The Killers,3072882,8.538,-80.7821,10.133411055956394,-81.53326499130354
Panama,Come as You Are,Nirvana,2829904,8.538,-80.7821,9.623949617589059,-81.31899718416595
Panama,Losing My Religion,R.E.M.,1842134,8.538,-80.7821,10.50722741050494,-79.29888928541168
Panama,Zombie,The Cranberries,2012693,8.538,-80.7821,7.317717270088094,-78.90994178765796
Panama,Sweet Child o' Mine,Guns N' Roses,2065128,8.538,-80.7821,6.6515430917131475,-82.07787974088546
Cuba,Blinding Lights,The Weeknd,1707888,21.5218,-77.7812,22.86454591908903,-79.37064266135552
Cuba,Everlong,Foo Fighters,2339983,21.5218,-77.7812,21.162231177522848,-79.08006515617001
Cuba,Smells Like Teen Spirit,Nirvana,3206072,21.5218,-77.7812,22.7862840251604,-76.13124444916956
Cuba,Save Your Tears,The Weeknd,1286958,21.5218,-77.7812,21.993389253814343,-77.3789272247417
Cuba,Everybody Wants to Rule the World,Tears for Fears,1938938,21.5218,-77.7812,20.630911536071483,-77.25402525932358
Cuba,Take on Me,a-ha,2148860,21.5218,-77.7812,21.37023796576448,-79.52992954320717
Cuba,Billie Jean,Michael Jackson,2228528,21.5218,-77.7812,21.43018431611285,-79.42443272085629
Cuba,Losing My Religion,R.E.M.,1842134,21.5218,-77.7812,19.88159362119475,-76.94025076426726
Cuba,Last Nite,The Strokes,1656955,21.5218,-77.7812,19.99254233245405,-78.37127609745019
Cuba,Fortunate Son,Creedence Clearwater Revival,1674461,21.5218,-77.7812,22.869325060268324,-75.86183563505989
Dominican Republic,Smells Like Teen Spirit,Nirvana,3206072,18.7357,-70.1627,20.54765208958099,-70.7445334411972
Dominican Republic,Can't Feel My Face,The Weeknd,1322599,18.7357,-70.1627,18.76542495909019,-69.33055162806538
Dominican Republic,Take on Me,a-ha,2148860,18.7357,-70.1627,18.456438692432023,-68.97829921832462
Dominican Republic,Losing My Religion,R.E.M.,1842134,18.7357,-70.1627,18.351400670288648,-68.57657510276455
Dominican Republic,Do I Wanna Know?,Arctic Monkeys,2128754,18.7357,-70.1627,17.37529292444831,-71.52130305196174
Dominican Republic,Seven Nation Army,The White Stripes,2343189,18.7357,-70.1627,19.544079099001817,-69.00911903629057
Dominican Republic,Creep,Radiohead,2870305,18.7357,-70.1627,19.399968017508055,-71.33143001369025
Dominican Republic,Everybody Wants to Rule the World,Tears for Fears,1938938,18.7357,-70.1627,19.061038422201833,-70.63327585938897
Dominican Republic,Mr. Brightside,The Killers,3072882,18.7357,-70.1627,17.284224746514376,-69.82516385199798
Dominican Republic,Feel Good Inc.,Gorillaz,2661048,18.7357,-70.1627,19.57464950328383,-69.97157487708672
Brazil,Do I Wanna Know?,Arctic Monkeys,2128754,-14.235,-51.9253,-15.986810669849127,-53.72302066973279
Brazil,Mr. Brightside,The Killers,3072882,-14.235,-51.9253,-13.738248889121996,-50.76853889163542
Brazil,Take on Me,a-ha,2148860,-14.235,-51.9253,-14.728659820994153,-49.945555695648586
Brazil,Losing My Religion,R.E.M.,1842134,-14.235,-51.9253,-13.16141162471807,-51.33383218580559
Brazil,Seven Nation Army,The White Stripes,2343189,-14.235,-51.9253,-13.719865288894516,-53.50614266474573
Brazil,R U Mine?,Arctic Monkeys,1652572,-14.235,-51.9253,-12.597450543147234,-50.88050655155321
Brazil,In the End,Linkin Park,2311704,-14.235,-51.9253,-15.623977968190353,-51.43974535857658
Brazil,Smells Like Teen Spirit,Nirvana,3206072,-14.235,-51.9253,-13.650064778514885,-53.799679670397104
Brazil,The Less I Know the Better,Tame Impala,1820269,-14.235,-51.9253,-13.191265212361415,-50.44062973639583
Brazil,Californication,Red Hot Chili Peppers,2364578,-14.235,-51.9253,-14.629208975146717,-52.84156179065897
Argentina,Creep,Radiohead,2870305,-38.4161,-63.6167,-39.63095734425307,-64.95048928880581
Argentina,Last Nite,The Strokes,1656955,-38.4161,-63.6167,-37.680156752996346,-61.776695054614656
Argentina,Karma Police,Radiohead,2466252,-38.4161,-63.6167,-40.28939505975472,-63.72789874066975
Argentina,Losing My Religion,R.E.M.,1842134,-38.4161,-63.6167,-39.98640835478592,-63.25251293140422
Argentina,Puente,Gustavo Cerati,138248,-38.4161,-63.6167,-39.52858087538105,-62.02206982002654
Argentina,Under the Bridge,Red Hot Chili Peppers,2211851,-38.4161,-63.6167,-39.89145961290786,-62.039679789753954
Argentina,Do I Wanna Know?,Arctic Monkeys,2128754,-38.4161,-63.6167,-37.15491609195247,-64.85537161204937
Argentina,Come as You Are,Nirvana,2829904,-38.4161,-63.6167,-38.87036019242598,-61.77372620590448
Argentina,Boys Don't Cry,The Cure,1717511,-38.4161,-63.6167,-36.46533607233529,-63.3400158101812
Argentina,Smells Like Teen Spirit,Nirvana,3206072,-38.4161,-63.6167,-39.59806978836055,-61.95420412853115
Colombia,Creep,Radiohead,2870305,4.5709,-74.2973,6.441485895976944,-75.4776978301382
Colombia,Do I Wanna Know?,Arctic Monkeys,2128754,4.5709,-74.2973,4.536704323822286,-75.76802964088526
Colombia,Losing My Religion,R.E.M.,1842134,4.5709,-74.2973,5.329627589416245,-74.53080034615739
Colombia,Seven Nation Army,The White Stripes,2343189,4.5709,-74.2973,5.2037257065066855,-76.0936386811403
Colombia,Take Me Out,Franz Ferdinand,2363976,4.5709,-74.2973,3.0994069281918644,-73.71005661975097
Colombia,Last Nite,The Strokes,1656955,4.5709,-74.2973,3.164131847838269,-73.0051353285919
Colombia,Smells Like Teen Spirit,Nirvana,3206072,4.5709,-74.2973,6.077622680002608,-75.31984384894363
Colombia,Reptilia,The Strokes,1919555,4.5709,-74.2973,5.508586318469035,-73.80913698426616
Colombia,Mr. Brightside,The Killers,3072882,4.5709,-74.2973,5.135973784720038,-75.33072738046198
Colombia,Sex on Fire,Kings of Leon,2169667,4.5709,-74.2973,2.790510533689366,-75.695754927799
Chile,Creep,Radiohead,2870305,-35.6751,-71.543,-34.13926951569101,-73.50121796227465
Chile,Karma Police,Radiohead,2466252,-35.6751,-71.543,-34.79867493184277,-69.70465992981357
Chile,Last Nite,The Strokes,1656955,-35.6751,-71.543,-35.00428427871633,-70.34803315961749
Chile,The Less I Know the Better,Tame Impala,1820269,-35.6751,-71.543,-35.96181363556652,-71.21290799666485
Chile,Take Me Out,Franz Ferdinand,2363976,-35.6751,-71.543,-33.76291482231783,-70.35927555660928
Chile,Losing My Religion,R.E.M.,1842134,-35.6751,-71.543,-37.395920910471716,-70.49470950506938
Chile,Boys Don't Cry,The Cure,1717511,-35.6751,-71.543,-34.647642414286395,-70.70959459912747
Chile,Reptilia,The Strokes,1919555,-35.6751,-71.543,-33.736665507940614,-71.87886128348856
Chile,Estrechez De Corazón,Los Prisioneros,79911,-35.6751,-71.543,-36.92595464254111,-72.05292488326148
Chile,Do I Wanna Know?,Arctic Monkeys,2128754,-35.6751,-71.543,-33.91508274581866,-73.25745511664172
Peru,Creep,Radiohead,2870305,-9.19,-75.0152,-10.457838261242731,-75.22437022630474
Peru,Take Me Out,Franz Ferdinand,2363976,-9.19,-75.0152,-9.299968942021257,-74.68465676644048
Peru,Last Nite,The Strokes,1656955,-9.19,-75.0152,-10.144150504754451,-75.78346708525191
Peru,Take on Me,a-ha,2148860,-9.19,-75.0152,-7.601549740005934,-74.80761081584532
Peru,Losing My Religion,R.E.M.,1842134,-9.19,-75.0152,-9.824507731815727,-75.37997625559036
Peru,Mr. Brightside,The Killers,3072882,-9.19,-75.0152,-10.573182784301245,-74.9900372963791
Peru,Yellow,Coldplay,2642867,-9.19,-75.0152,-8.768241354238743,-73.24620661305464
Peru,The Less I Know the Better,Tame Impala,1820269,-9.19,-75.0152,-8.63884693257991,-73.20981963805916
Peru,Smells Like Teen Spirit,Nirvana,3206072,-9.19,-75.0152,-8.38141370988054,-74.78592816162572
Peru,The Scientist,Coldplay,2306951,-9.19,-75.0152,-10.37068748143291,-73.24593495335299
Venezuela,Creep,Radiohead,2870305,6.4238,-66.5897,6.793980452701467,-67.67799062322956
Venezuela,In the End,Linkin Park,2311704,6.4238,-66.5897,4.816187052251946,-65.48417478568001
Venezuela,Mr. Brightside,The Killers,3072882,6.4238,-66.5897,6.1663207336076,-68.53537167546935
Venezuela,Smells Like Teen Spirit,Nirvana,3206072,6.4238,-66.5897,8.404059442671338,-68.06235761244349
Venezuela,Seven Nation Army,The White Stripes,2343189,6.4238,-66.5897,4.766613370079918,-65.5600872866221
Venezuela,Can't Feel My Face,The Weeknd,1322599,6.4238,-66.5897,5.68365415579674,-67.86498024460946
Venezuela,Do I Wanna Know?,Arctic Monkeys,2128754,6.4238,-66.5897,8.330369044419726,-67.98208536279307
Venezuela,Californication,Red Hot Chili Peppers,2364578,6.4238,-66.5897,7.957997901340626,-67.30955476412953
Venezuela,Everlong,Foo Fighters,2339983,6.4238,-66.5897,5.122289297829219,-67.79406857060115
Venezuela,Karma Police,Radiohead,2466252,6.4238,-66.5897,5.644279938828603,-65.96417330359576
Ecuador,Under the Bridge,Red Hot Chili Peppers,2211851,-1.8312,-78.1834,-3.3602773988487726,-78.48966029635125
Ecuador,Losing My Religion,R.E.M.,1842134,-1.8312,-78.1834,-1.8723788179626606,-78.26218827181921
Ecuador,Creep,Radiohead,2870305,-1.8312,-78.1834,-0.0955487020173722,-76.82242485590083
Ecuador,Seven Nation Army,The White Stripes,2343189,-1.8312,-78.1834,-2.5646164388833057,-77.04128559706845
Ecuador,Take on Me,a-ha,2148860,-1.8312,-78.1834,-1.656411448511947,-79.66200930078409
Ecuador,The Scientist,Coldplay,2306951,-1.8312,-78.1834,-2.8361992215883283,-78.34112145567289
Ecuador,Do I Wanna Know?,Arctic Monkeys,2128754,-1.8312,-78.1834,-1.6819778359345396,-78.84147685821685
Ecuador,Smells Like Teen Spirit,Nirvana,3206072,-1.8312,-78.1834,-1.0991747160694754,-76.57795836174465
Ecuador,Come as You Are,Nirvana,2829904,-1.8312,-78.1834,-1.0339635013095538,-79.38708437531315
Ecuador,Bitter Sweet Symphony,The Verve,1541354,-1.8312,-78.1834,-0.2404825664083754,-77.30141503925002
Bolivia,Creep,Radiohead,2870305,-16.2902,-63.5887,-14.969612526194288,-64.06717508879787
Bolivia,Smells Like Teen Spirit,Nirvana,3206072,-16.2902,-63.5887,-16.05877153830795,-61.83325180581162
Bolivia,Otherside,Red Hot Chili Peppers,1918734,-16.2902,-63.5887,-18.176514935582,-62.89280560169898
Bolivia,Sex on Fire,Kings of Leon,2169667,-16.2902,-63.5887,-14.601968881160328,-63.161842888848696
Bolivia,Take on Me,a-ha,2148860,-16.2902,-63.5887,-14.39730268792184,-63.979991810826675
Bolivia,Losing My Religion,R.E.M.,1842134,-16.2902,-63.5887,-16.331523633062684,-64.87062543092092
Bolivia,Come as You Are,Nirvana,2829904,-16.2902,-63.5887,-16.5974577226754,-64.7274985973746
Bolivia,Under the Bridge,Red Hot Chili Peppers,2211851,-16.2902,-63.5887,-14.7339340655489,-64.48413071703169
Bolivia,Seven Nation Army,The White Stripes,2343189,-16.2902,-63.5887,-14.542163379458687,-62.32338881181716
Bolivia,Sweet Child o' Mine,Guns N' Roses,2065128,-16.2902,-63.5887,-17.384973237033392,-62.74506680361853
Paraguay,Mr. Brightside,The Killers,3072882,-23.4425,-58.4438,-23.787683058247243,-57.16976415706249
Paraguay,Take Me Out,Franz Ferdinand,2363976,-23.4425,-58.4438,-22.8980910565052,-57.39896935781193
Paraguay,Do I Wanna Know?,Arctic Monkeys,2128754,-23.4425,-58.4438,-21.5212064757358,-56.906997491028484
Paraguay,Seven Nation Army,The White Stripes,2343189,-23.4425,-58.4438,-25.052065079319146,-57.65752746099606
Paraguay,Creep,Radiohead,2870305,-23.4425,-58.4438,-24.113034278065957,-57.467342941392786
Paraguay,Take on Me,a-ha,2148860,-23.4425,-58.4438,-23.17713916304408,-57.013186417342304
Paraguay,Sex on Fire,Kings of Leon,2169667,-23.4425,-58.4438,-21.679085163419767,-57.91249284223106
Paraguay,Africa,Toto,1647599,-23.4425,-58.4438,-22.077526491208648,-56.97203637181069
Paraguay,Feel Good Inc.,Gorillaz,2661048,-23.4425,-58.4438,-22.04149613099173,-56.77086451722768
Paraguay,Last Nite,The Strokes,1656955,-23.4425,-58.4438,-22.392902616693725,-58.87799244936819
Uruguay,Losing My Religion,R.E.M.,1842134,-32.5228,-55.7658,-32.677750117857855,-55.197038564506485
Uruguay,Smells Like Teen Spirit,Nirvana,3206072,-32.5228,-55.7658,-32.127111092965464,-54.591812585362625
Uruguay,Last Nite,The Strokes,1656955,-32.5228,-55.7658,-30.934357192514376,-54.888386271091136
Uruguay,Seven Nation Army,The White Stripes,2343189,-32.5228,-55.7658,-31.781255850270494,-55.68479025704501
Uruguay,Creep,Radiohead,2870305,-32.5228,-55.7658,-32.44530208491836,-55.20266250832972
Uruguay,Take on Me,a-ha,2148860,-32.5228,-55.7658,-33.8593767470425,-55.63075936949496
Uruguay,Under the Bridge,Red Hot Chili Peppers,2211851,-32.5228,-55.7658,-32.92928253248094,-55.332560483862494
Uruguay,Take Me Out,Franz Ferdinand,2363976,-32.5228,-55.7658,-33.22998551922713,-55.262664138818536
Uruguay,Reptilia,The Strokes,1919555,-32.5228,-55.7658,-33.02515922644582,-53.927466135397516
Uruguay,Sultans of Swing,Dire Straits,1522259,-32.5228,-55.7658,-32.91186697139861,-57.5418010729746
Nigeria,Ojuelegba,Wizkid,35107,9.082,8.6753,9.30724700006965,10.367308982640434
Nigeria,Can't Feel My Face,The Weeknd,1322599,9.082,8.6753,10.569530441668837,10.002824557301269
Nigeria,On The Low,Burna Boy,88331,9.082,8.6753,9.323930076518272,8.686395098990738
Nigeria,Mad over You,RUNTOWN,17848,9.082,8.6753,7.686217346541088,9.638554227252
Nigeria,Shape of You,Ed Sheeran,951830,9.082,8.6753,9.756431342777134,7.077563064871683
Nigeria,Hello,Adele,820388,9.082,8.6753,10.096568362867956,10.534639734005303
Nigeria,Ye,Burna Boy,88834,9.082,8.6753,10.791724518552538,8.668056700614695
Nigeria,Gbona,Burna Boy,74898,9.082,8.6753,10.332979962831368,8.393135605358445
Nigeria,Pana,Tekno,24001,9.082,8.6753,7.811035739691755,7.753462422116161
Nigeria,HUMBLE.,Kendrick Lamar,1544791,9.082,8.6753,9.522682629300459,7.833147339494303
South Africa,Smells Like Teen Spirit,Nirvana,3206072,-30.5595,22.9375,-32.11645007930565,24.66861475123408
South Africa,Seven Nation Army,The White Stripes,2343189,-30.5595,22.9375,-28.609611175131256,23.078766808803294
South Africa,Creep,Radiohead,2870305,-30.5595,22.9375,-30.489150240887923,21.027692852790885
South Africa,Mr. Brightside,The Killers,3072882,-30.5595,22.9375,-29.663841843382915,24.62486578797092
South Africa,Come as You Are,Nirvana,2829904,-30.5595,22.9375,-30.408591380999276,24.84096781227138
South Africa,Take on Me,a-ha,2148860,-30.5595,22.9375,-29.065772111308473,22.693178300659923
South Africa,Losing My Religion,R.E.M.,1842134,-30.5595,22.9375,-30.139837282958815,22.441107384331616
South Africa,Africa,Toto,1647599,-30.5595,22.9375,-31.200098534476943,23.17823241181908
South Africa,Under the Bridge,Red Hot Chili Peppers,2211851,-30.5595,22.9375,-32.01684081961817,23.032054457440967
South Africa,Karma Police,Radiohead,2466252,-30.5595,22.9375,-30.772497977631396,24.278197254496117
Egypt,Wish You Were Here,Pink Floyd,1638667,26.8206,30.8025,25.86545829695659,31.80664056670986
Egypt,Creep,Radiohead,2870305,26.8206,30.8025,26.519822990853644,32.38751364008363
Egypt,Do I Wanna Know?,Arctic Monkeys,2128754,26.8206,30.8025,28.57495126263965,31.251401171016482
Egypt,Comfortably Numb,Pink Floyd,1269582,26.8206,30.8025,27.863773175636986,29.433875624085125
Egypt,In the End,Linkin Park,2311704,26.8206,30.8025,24.901674674859954,32.07061741200388
Egypt,Zombie,The Cranberries,2012693,26.8206,30.8025,27.372918711861047,31.168252968065897
Egypt,Nothing Else Matters,Metallica,1497462,26.8206,30.8025,25.23793785746972,29.39343426349598
Egypt,Smells Like Teen Spirit,Nirvana,3206072,26.8206,30.8025,25.106158287350553,32.12512483438175
Egypt,Hello,Adele,820388,26.8206,30.8025,28.035069387560846,32.40986875783961
Egypt,Karma Police,Radiohead,2466252,26.8206,30.8025,28.557507065131514,31.565333959551143
Algeria,Creep,Radiohead,2870305,28.0339,1.6596,26.9768790673001,1.4910931957467353
Algeria,Losing My Religion,R.E.M.,1842134,28.0339,1.6596,26.17896796882023,1.5952698436890673
Algeria,Do I Wanna Know?,Arctic Monkeys,2128754,28.0339,1.6596,28.386655658659148,0.8879574735266826
Algeria,Intro,The xx,1432916,28.0339,1.6596,27.532641989812223,-0.0371607273169825
Algeria,Starlight,Muse,1675102,28.0339,1.6596,28.916586974421268,2.6004012231679186
Algeria,Numb,Linkin Park,2126574,28.0339,1.6596,28.527327524086495,1.8388263412224093
Algeria,Wonderwall,Oasis,2260888,28.0339,1.6596,28.295388020723838,1.8380014013658645
Algeria,Sultans of Swing,Dire Straits,1522259,28.0339,1.6596,29.025644435930932,1.727160508367325
Algeria,Shape of You,Ed Sheeran,951830,28.0339,1.6596,26.429526032722457,0.9973051412175546
Algeria,Smells Like Teen Spirit,Nirvana,3206072,28.0339,1.6596,28.399912500075416,0.0558640957686356
Morocco,Smells Like Teen Spirit,Nirvana,3206072,31.7917,-7.0926,31.37136704779204,-8.915414309865602
Morocco,Sultans of Swing,Dire Straits,1522259,31.7917,-7.0926,32.812564871651134,-8.895522398015105
Morocco,The Less I Know the Better,Tame Impala,1820269,31.7917,-7.0926,31.641813783364277,-9.060905121782413
Morocco,Creep,Radiohead,2870305,31.7917,-7.0926,31.066229449149557,-5.893356474700232
Morocco,Intro,The xx,1432916,31.7917,-7.0926,32.091018000914644,-6.055054597198903
Morocco,Can't Feel My Face,The Weeknd,1322599,31.7917,-7.0926,32.660555274115936,-5.269951866723153
Morocco,Do I Wanna Know?,Arctic Monkeys,2128754,31.7917,-7.0926,31.53215565074523,-8.842519399576657
Morocco,HUMBLE.,Kendrick Lamar,1544791,31.7917,-7.0926,31.76241560498531,-6.452046386479067
Morocco,Back to Black,Amy Winehouse,1956807,31.7917,-7.0926,30.050615829437497,-6.748350839989518
Morocco,Seven Nation Army,The White Stripes,2343189,31.7917,-7.0926,30.832214717166703,-6.791492755819181
Kenya,Can't Feel My Face,The Weeknd,1322599,-0.0236,37.9062,0.4386334267946728,36.03988984140756
Kenya,Hello,Adele,820388,-0.0236,37.9062,-1.3712141057609921,39.76914561950311
Kenya,Hotline Bling,Drake,978214,-0.0236,37.9062,-1.5159575651275823,39.5772511239143
Kenya,Viva la Vida,Coldplay,2598238,-0.0236,37.9062,-1.290714009943895,38.74870355562075
Kenya,Sorry,Justin Bieber,917151,-0.0236,37.9062,1.4089444578765509,37.41243648126397
Kenya,HUMBLE.,Kendrick Lamar,1544791,-0.0236,37.9062,-0.8628528794080016,38.65556145827495
Kenya,The Scientist,Coldplay,2306951,-0.0236,37.9062,-1.2947916026267956,39.215191832328316
Kenya,One Dance,Drake,1289824,-0.0236,37.9062,1.1413629311392568,39.81539802076357
Kenya,Stressed Out,Twenty One Pilots,1296206,-0.0236,37.9062,-1.2206128079090512,38.15611115346788
Kenya,Adventure Of A Lifetime,Coldplay,780018,-0.0236,37.9062,0.6601740091126863,38.60242400570338
Ethiopia,Fast Car,Tracy Chapman,1010260,9.145,40.4897,10.558935750300856,40.16882099525291
Ethiopia,Tainted Love,Soft Cell,1473476,9.145,40.4897,9.216011085838002,41.376428689450194
Ethiopia,High and Dry,Radiohead,1818733,9.145,40.4897,8.194381763930425,40.9525493548042
Ethiopia,Losing My Religion,R.E.M.,1842134,9.145,40.4897,9.05926009948408,40.93080540422322
Ethiopia,Zombie,The Cranberries,2012693,9.145,40.4897,8.806937230689789,39.690846666666985
Ethiopia,Sweet Child o' Mine,Guns N' Roses,2065128,9.145,40.4897,10.729266105432806,38.507455832036115
Ethiopia,Teardrop,Massive Attack,1600282,9.145,40.4897,9.562134131224193,39.211521169782195
Ethiopia,Bitter Sweet Symphony,The Verve,1541354,9.145,40.4897,9.360057960337926,41.239406700869964
Ethiopia,Gimme Shelter,The Rolling Stones,1351685,9.145,40.4897,8.805024379516526,42.19414192724951
Ethiopia,Glory Box,Portishead,1264113,9.145,40.4897,7.504135353255121,41.43614232028891
Ghana,Rolling in the Deep,Adele,2083061,7.9465,-1.0232,8.626609115357503,-1.3227163921529588
Ghana,Fix You,Coldplay,2063808,7.9465,-1.0232,9.294709925900953,0.15950376180217374
Ghana,Someone Like You,Adele,1689461,7.9465,-1.0232,7.609405888457776,0.014631593794869335
Ghana,Make You Feel My Love,Adele,1070957,7.9465,-1.0232,8.408825729471667,-1.9503805091123305
Ghana,Yellow,Coldplay,2642867,7.9465,-1.0232,9.178155834248019,0.6516892476751033
Ghana,Stronger,Kanye West,2271556,7.9465,-1.0232,8.091972154383864,-0.4046562007754231
Ghana,Set Fire to the Rain,Adele,1575630,7.9465,-1.0232,9.470462924887292,-1.24175976538469
Ghana,September,"Earth, Wind & Fire",1548109,7.9465,-1.0232,6.810290241722312,-0.30406199141092394
Ghana,Hello,Adele,820388,7.9465,-1.0232,7.445188110862395,-2.545421471854923
Ghana,Is This Love,Bob Marley & The Wailers,923356,7.9465,-1.0232,8.789615893269348,-1.9081896354532204
Uganda,Hello,Adele,820388,1.3733,32.2903,-0.5419859715187556,31.75566208268472
Uganda,Lean On (feat. MØ & DJ Snake),Major Lazer,804664,1.3733,32.2903,1.1964367705446604,32.01944911739683
Uganda,Jamming,Bob Marley & The Wailers,773492,1.3733,32.2903,1.7035073596721357,33.72324947257292
Uganda,Rolling in the Deep,Adele,2083061,1.3733,32.2903,2.1627117697236975,34.25575005589717
Uganda,No Scrubs,TLC,1233419,1.3733,32.2903,0.9644571756362459,33.36182492571665
Uganda,Three Little Birds,Bob Marley & The Wailers,1056409,1.3733,32.2903,2.65699173506051,33.17743781791965
Uganda,Ready or Not,Fugees,748291,1.3733,32.2903,0.42279084267246203,32.44192243907726
Uganda,All That She Wants,Ace of Base,721455,1.3733,32.2903,2.901279700605328,30.382665060702276
Uganda,On The Low,Burna Boy,88331,1.3733,32.2903,1.8519828036730401,34.125236284052235
Uganda,Ye,Burna Boy,88834,1.3733,32.2903,0.9437459174582186,32.016457909255834
Australia,Mr. Brightside,The Killers,3072882,-25.2744,133.7751,-27.125452898556667,132.16917832484296
Australia,The Less I Know the Better,Tame Impala,1820269,-25.2744,133.7751,-23.90216447642264,135.1445565467479
Australia,Feel Good Inc.,Gorillaz,2661048,-25.2744,133.7751,-23.845110750452765,132.87449351922857
Australia,Africa,Toto,1647599,-25.2744,133.7751,-24.421760641525626,132.4818120343284
Australia,Smells Like Teen Spirit,Nirvana,3206072,-25.2744,133.7751,-26.2531832561392,135.08273822683935
Australia,Can't Feel My Face,The Weeknd,1322599,-25.2744,133.7751,-23.92549962669208,134.6061749830324
Australia,Seven Nation Army,The White Stripes,2343189,-25.2744,133.7751,-23.4279420422067,132.65107870675203
Australia,Under the Bridge,Red Hot Chili Peppers,2211851,-25.2744,133.7751,-24.563261653662565,134.8707952351687
Australia,Teardrop,Massive Attack,1600282,-25.2744,133.7751,-25.229823808954286,132.97177183671693
Australia,Everybody Wants to Rule the World,Tears for Fears,1938938,-25.2744,133.7751,-25.369674393544575,132.4533714881365
New Zealand,Mr. Brightside,The Killers,3072882,-40.9006,174.886,-40.51139675151497,175.44970084469418
New Zealand,Feel Good Inc.,Gorillaz,2661048,-40.9006,174.886,-39.81835953736088,175.44787568831703
New Zealand,Smells Like Teen Spirit,Nirvana,3206072,-40.9006,174.886,-40.60776114892316,173.8962867623791
New Zealand,Seven Nation Army,The White Stripes,2343189,-40.9006,174.886,-39.084099551093054,174.12123002281524
New Zealand,Under the Bridge,Red Hot Chili Peppers,2211851,-40.9006,174.886,-41.133495865087106,174.26798829384825
New Zealand,Africa,Toto,1647599,-40.9006,174.886,-39.06392442679186,173.33020024024378
New Zealand,Creep,Radiohead,2870305,-40.9006,174.886,-39.02790834710433,176.80436310439495
New Zealand,The Less I Know the Better,Tame Impala,1820269,-40.9006,174.886,-39.621758930708836,173.34888824507553
New Zealand,Everlong,Foo Fighters,2339983,-40.9006,174.886,-42.502840261234454,176.40131590410869
New Zealand,Karma Police,Radiohead,2466252,-40.9006,174.886,-42.65469256350249,175.04491414426312
Papua New Guinea,Close to You,Maxi Priest,95253,-6.3149,143.9555,-5.444844477667049,142.35157395163876
Papua New Guinea,Famous,French Montana,19915,-6.3149,143.9555,-6.332622390118566,145.25688049986863
Papua New Guinea,Our Dream,Justin Wellington,107,-6.3149,143.9555,-7.67774498013509,144.93782924561896
Fiji,Careless Whisper,George Michael,1272266,-17.7134,178.065,-16.313205195929875,176.44891255986752
Fiji,The Less I Know the Better,Tame Impala,1820269,-17.7134,178.065,-18.868838780666607,178.4853546876485
Fiji,Feel Good Inc.,Gorillaz,2661048,-17.7134,178.065,-18.76844249808336,177.5378187333649
Fiji,Pumped Up Kicks,Foster the People,2194143,-17.7134,178.065,-19.180449609066685,176.6659543831036
Fiji,Billie Jean,Michael Jackson,2228528,-17.7134,178.065,-17.639801182202795,179.32856536163422
Fiji,Sexual Healing,Marvin Gaye,699205,-17.7134,178.065,-17.462288492874922,179.19787169394476
Fiji,505,Arctic Monkeys,2005903,-17.7134,178.065,-18.00693969764665,176.8536095898885
Fiji,Mr. Brightside,The Killers,3072882,-17.7134,178.065,-18.947827961598627,176.47213354386392
Fiji,PRIDE.,Kendrick Lamar,1178704,-17.7134,178.065,-18.96862264382386,178.04208641790987
Fiji,HUMBLE.,Kendrick Lamar,1544791,-17.7134,178.065,-19.475415710012765,178.1571476953083
Samoa,Fade Into You,Mazzy Star,1345930,-13.759,-172.1046,-14.417087034098918,-170.94763666782356
Samoa,Royals,Lorde,1635773,-13.759,-172.1046,-15.757954249344523,-174.0069962803943
Samoa,Can't Stop,Red Hot Chili Peppers,1823672,-13.759,-172.1046,-13.614694633312439,-171.9688501172955
Samoa,Livin' on a Prayer,Bon Jovi,1601756,-13.759,-172.1046,-13.885951261172238,-170.1064356961256
Samoa,Maps,Yeah Yeah Yeahs,1226661,-13.759,-172.1046,-13.366200179889761,-170.575773528712
Samoa,Hello,Adele,820388,-13.759,-172.1046,-15.317749900422799,-172.5925399402077
Samoa,Youth,Daughter,730635,-13.759,-172.1046,-13.115801302640754,-173.49432119914871
Samoa,Million Reasons,Lady Gaga,480702,-13.759,-172.1046,-11.80024893211303,-174.0363496701083
Samoa,Rockabye (feat. Sean Paul & Anne-Marie),Clean Bandit,487997,-13.759,-172.1046,-15.670608981140365,-170.84718730344932
Samoa,Superstar,Sonic Youth,627922,-13.759,-172.1046,-14.082129470823787,-170.96705320376591
